{
  "type": "FeatureCollection",
  "features": [
    {
      "type": "Feature",
      "properties": {
        "norad_id": 30314,
        "name": "FENGYUN 1C DEB",
        "group": "fengyun-1c-debris",
        "lat": -22.097871557047068,
        "lon": 174.4902258109151,
        "alt_km": 815.3159160608247,
        "timestamp": "2025-12-05T14:45:15.574470+00:00",
        "meta_object_name": "FENGYUN 1C DEB",
        "meta_object_id": "1999-025AAB",
        "meta_epoch": "2025-12-03T11:26:37.365504",
        "meta_mean_motion": 14.01143232,
        "meta_eccentricity": 0.01426909,
        "meta_inclination": 98.3813,
        "meta_ra_of_asc_node": 169.0949,
        "meta_arg_of_pericenter": 24.0355,
        "meta_mean_anomaly": 336.7387,
        "meta_ephemeris_type": 0,
        "meta_classification_type": "U",
        "meta_norad_cat_id": 30314,
        "meta_element_set_no": 999,
        "meta_rev_at_epoch": 95979,
        "meta_bstar": 0.001378203,
        "meta_mean_motion_dot": 2.223e-05,
        "meta_mean_motion_ddot": 0,
        "tle_line1": "1 30314U 99025AAB 25337.47682136  .00002223  00000+0  13782-2 0  9994",
        "tle_line2": "2 30314  98.3813 169.0949 0142690  24.0355 336.7387 14.01143232959791"
      },
      "geometry": {
        "type": "Point",
        "coordinates": [
          174.4902258109151,
          -22.097871557047068
        ]
      }
    },
    {
      "type": "Feature",
      "properties": {
        "norad_id": 30315,
        "name": "FENGYUN 1C DEB",
        "group": "fengyun-1c-debris",
        "lat": 44.90625197553651,
        "lon": -19.34266641235263,
        "alt_km": 801.3122578364246,
        "timestamp": "2025-12-05T14:45:15.574481+00:00",
        "meta_object_name": "FENGYUN 1C DEB",
        "meta_object_id": "1999-025AAC",
        "meta_epoch": "2025-12-03T23:52:11.591904",
        "meta_mean_motion": 14.19045338,
        "meta_eccentricity": 0.00357302,
        "meta_inclination": 98.6023,
        "meta_ra_of_asc_node": 347.7628,
        "meta_arg_of_pericenter": 25.3975,
        "meta_mean_anomaly": 27.9142,
        "meta_ephemeris_type": 0,
        "meta_classification_type": "U",
        "meta_norad_cat_id": 30315,
        "meta_element_set_no": 999,
        "meta_rev_at_epoch": 97583,
        "meta_bstar": 0.00051655855,
        "meta_mean_motion_dot": 1.043e-05,
        "meta_mean_motion_ddot": 0,
        "tle_line1": "1 30315U 99025AAC 25337.99457861  .00001043  00000+0  51656-3 0  9999",
        "tle_line2": "2 30315  98.6023 347.7628 0035730  25.3975  27.9142 14.19045338975833"
      },
      "geometry": {
        "type": "Point",
        "coordinates": [
          -19.34266641235263,
          44.90625197553651
        ]
      }
    },
    {
      "type": "Feature",
      "properties": {
        "norad_id": 30316,
        "name": "FENGYUN 1C DEB",
        "group": "fengyun-1c-debris",
        "lat": -52.40193141014275,
        "lon": -109.62906123347737,
        "alt_km": 738.7763201130583,
        "timestamp": "2025-12-05T14:45:15.574491+00:00",
        "meta_object_name": "FENGYUN 1C DEB",
        "meta_object_id": "1999-025AAD",
        "meta_epoch": "2025-12-04T06:20:53.515392",
        "meta_mean_motion": 14.55813179,
        "meta_eccentricity": 0.0036224,
        "meta_inclination": 98.649,
        "meta_ra_of_asc_node": 80.3728,
        "meta_arg_of_pericenter": 66.5336,
        "meta_mean_anomaly": 293.9661,
        "meta_ephemeris_type": 0,
        "meta_classification_type": "U",
        "meta_norad_cat_id": 30316,
        "meta_element_set_no": 999,
        "meta_rev_at_epoch": 98213,
        "meta_bstar": 0.0056241,
        "meta_mean_motion_dot": 0.00024902,
        "meta_mean_motion_ddot": 0,
        "tle_line1": "1 30316U 99025AAD 25338.26450828  .00024902  00000+0  56241-2 0  9990",
        "tle_line2": "2 30316  98.6490  80.3728 0036224  66.5336 293.9661 14.55813179982138"
      },
      "geometry": {
        "type": "Point",
        "coordinates": [
          -109.62906123347737,
          -52.40193141014275
        ]
      }
    },
    {
      "type": "Feature",
      "properties": {
        "norad_id": 30317,
        "name": "FENGYUN 1C DEB",
        "group": "fengyun-1c-debris",
        "lat": -12.176287911144518,
        "lon": -17.797627427622352,
        "alt_km": 862.8403817145972,
        "timestamp": "2025-12-05T14:45:15.574501+00:00",
        "meta_object_name": "FENGYUN 1C DEB",
        "meta_object_id": "1999-025AAE",
        "meta_epoch": "2025-12-04T13:12:39.582432",
        "meta_mean_motion": 14.06941185,
        "meta_eccentricity": 0.0024259,
        "meta_inclination": 98.7863,
        "meta_ra_of_asc_node": 339.256,
        "meta_arg_of_pericenter": 300.883,
        "meta_mean_anomaly": 58.9954,
        "meta_ephemeris_type": 0,
        "meta_classification_type": "U",
        "meta_norad_cat_id": 30317,
        "meta_element_set_no": 999,
        "meta_rev_at_epoch": 96898,
        "meta_bstar": 0.00022279,
        "meta_mean_motion_dot": 3.29e-06,
        "meta_mean_motion_ddot": 0,
        "tle_line1": "1 30317U 99025AAE 25338.55045813  .00000329  00000+0  22279-3 0  9999",
        "tle_line2": "2 30317  98.7863 339.2560 0024259 300.8830  58.9954 14.06941185968988"
      },
      "geometry": {
        "type": "Point",
        "coordinates": [
          -17.797627427622352,
          -12.176287911144518
        ]
      }
    },
    {
      "type": "Feature",
      "properties": {
        "norad_id": 30320,
        "name": "FENGYUN 1C DEB",
        "group": "fengyun-1c-debris",
        "lat": -75.91502689270261,
        "lon": 79.07965206384394,
        "alt_km": 854.2332159380703,
        "timestamp": "2025-12-05T14:45:15.574511+00:00",
        "meta_object_name": "FENGYUN 1C DEB",
        "meta_object_id": "1999-025AAH",
        "meta_epoch": "2025-12-04T03:12:22.514688",
        "meta_mean_motion": 13.98551413,
        "meta_eccentricity": 0.0085396,
        "meta_inclination": 99.1896,
        "meta_ra_of_asc_node": 37.4163,
        "meta_arg_of_pericenter": 318.5037,
        "meta_mean_anomaly": 69.4614,
        "meta_ephemeris_type": 0,
        "meta_classification_type": "U",
        "meta_norad_cat_id": 30320,
        "meta_element_set_no": 999,
        "meta_rev_at_epoch": 96287,
        "meta_bstar": 0.0001791248,
        "meta_mean_motion_dot": 2.19e-06,
        "meta_mean_motion_ddot": 0,
        "tle_line1": "1 30320U 99025AAH 25338.13359392  .00000219  00000+0  17912-3 0  9993",
        "tle_line2": "2 30320  99.1896  37.4163 0085396 318.5037  69.4614 13.98551413962876"
      },
      "geometry": {
        "type": "Point",
        "coordinates": [
          79.07965206384394,
          -75.91502689270261
        ]
      }
    },
    {
      "type": "Feature",
      "properties": {
        "norad_id": 30321,
        "name": "FENGYUN 1C DEB",
        "group": "fengyun-1c-debris",
        "lat": -49.98905253626276,
        "lon": 148.38939432268086,
        "alt_km": 805.1002917453388,
        "timestamp": "2025-12-05T14:45:15.574521+00:00",
        "meta_object_name": "FENGYUN 1C DEB",
        "meta_object_id": "1999-025AAJ",
        "meta_epoch": "2025-12-04T12:49:51.892032",
        "meta_mean_motion": 14.16624522,
        "meta_eccentricity": 0.0059819,
        "meta_inclination": 98.656,
        "meta_ra_of_asc_node": 337.7943,
        "meta_arg_of_pericenter": 260.7287,
        "meta_mean_anomaly": 224.8518,
        "meta_ephemeris_type": 0,
        "meta_classification_type": "U",
        "meta_norad_cat_id": 30321,
        "meta_element_set_no": 999,
        "meta_rev_at_epoch": 97427,
        "meta_bstar": 0.00056377,
        "meta_mean_motion_dot": 1.101e-05,
        "meta_mean_motion_ddot": 0,
        "tle_line1": "1 30321U 99025AAJ 25338.53462838  .00001101  00000+0  56377-3 0  9997",
        "tle_line2": "2 30321  98.6560 337.7943 0059819 260.7287 224.8518 14.16624522974277"
      },
      "geometry": {
        "type": "Point",
        "coordinates": [
          148.38939432268086,
          -49.98905253626276
        ]
      }
    },
    {
      "type": "Feature",
      "properties": {
        "norad_id": 30322,
        "name": "FENGYUN 1C DEB",
        "group": "fengyun-1c-debris",
        "lat": 27.705039595738413,
        "lon": 22.264046696088762,
        "alt_km": 919.2346125067106,
        "timestamp": "2025-12-05T14:45:15.574532+00:00",
        "meta_object_name": "FENGYUN 1C DEB",
        "meta_object_id": "1999-025AAK",
        "meta_epoch": "2025-12-04T14:06:40.974336",
        "meta_mean_motion": 14.0603963,
        "meta_eccentricity": 0.0127138,
        "meta_inclination": 98.3988,
        "meta_ra_of_asc_node": 196.8618,
        "meta_arg_of_pericenter": 276.4485,
        "meta_mean_anomaly": 82.2221,
        "meta_ephemeris_type": 0,
        "meta_classification_type": "U",
        "meta_norad_cat_id": 30322,
        "meta_element_set_no": 999,
        "meta_rev_at_epoch": 96085,
        "meta_bstar": 0.0028491,
        "meta_mean_motion_dot": 4.989e-05,
        "meta_mean_motion_ddot": 0,
        "tle_line1": "1 30322U 99025AAK 25338.58797424  .00004989  00000+0  28491-2 0  9997",
        "tle_line2": "2 30322  98.3988 196.8618 0127138 276.4485  82.2221 14.06039630960851"
      },
      "geometry": {
        "type": "Point",
        "coordinates": [
          22.264046696088762,
          27.705039595738413
        ]
      }
    }
  ]
}